[{"OBJECT_NAME":"DONGPO 08","OBJECT_ID":"2022-167E","EPOCH":"2026-03-09T22:57:52.742880","MEAN_MOTION":15.31542505,"ECCENTRICITY":0.00092155,"INCLINATION":97.6764,"RA_OF_ASC_NODE":233.3854,"ARG_OF_PERICENTER":153.9158,"MEAN_ANOMALY":206.2548,"EPHEMERIS_TYPE":0,"CLASSIFICATION_TYPE":"U","NORAD_CAT_ID":54686,"ELEMENT_SET_NO":999,"REV_AT_EPOCH":18012,"BSTAR":0.0004734784,"MEAN_MOTION_DOT":0.0001437,"MEAN_MOTION_DDOT":0},{"OBJECT_NAME":"STARLINK-36177","OBJECT_ID":"2025-286H","EPOCH":"2026-03-09T05:54:12.767040","MEAN_MOTION":15.30198768,"ECCENTRICITY":9.815e-5,"INCLINATION":53.1601,"RA_OF_ASC_NODE":0.8802,"ARG_OF_PERICENTER":65.1436,"MEAN_ANOMALY":294.9667,"EPHEMERIS_TYPE":0,"CLASSIFICATION_TYPE":"U","NORAD_CAT_ID":66932,"ELEMENT_SET_NO":999,"REV_AT_EPOCH":1534,"BSTAR":0.00048089102,"MEAN_MOTION_DOT":0.0001391,"MEAN_MOTION_DDOT":0}]
